[{"OBJECT_NAME":"OBJECT B","OBJECT_ID":"2024-153B","EPOCH":"2026-03-09T23:15:18.632160","MEAN_MOTION":15.30512917,"ECCENTRICITY":0.00113423,"INCLINATION":97.6622,"RA_OF_ASC_NODE":204.9195,"ARG_OF_PERICENTER":149.8438,"MEAN_ANOMALY":210.3457,"EPHEMERIS_TYPE":0,"CLASSIFICATION_TYPE":"U","NORAD_CAT_ID":60746,"ELEMENT_SET_NO":999,"REV_AT_EPOCH":8476,"BSTAR":0.00066193599,"MEAN_MOTION_DOT":0.00019515,"MEAN_MOTION_DDOT":0},{"OBJECT_NAME":"STARLINK-34106","OBJECT_ID":"2025-095T","EPOCH":"2026-03-09T07:29:12.874848","MEAN_MOTION":15.27617963,"ECCENTRICITY":0.0006479,"INCLINATION":43.0031,"RA_OF_ASC_NODE":178.0374,"ARG_OF_PERICENTER":294.2372,"MEAN_ANOMALY":65.7803,"EPHEMERIS_TYPE":0,"CLASSIFICATION_TYPE":"U","NORAD_CAT_ID":63907,"ELEMENT_SET_NO":999,"REV_AT_EPOCH":4772,"BSTAR":0.0011119022,"MEAN_MOTION_DOT":0.00030512,"MEAN_MOTION_DDOT":0}]
